{"fetched_at":"2026-03-29T16:36:15Z","count":15609,"tles":[{"name":"STARLINK-11112 [DTC]","line1":"1 60115U 24118C   26087.81004792  .00054191  00000+0  44863-3 0  9990","line2":"2 60115  53.1572 127.2085 0001691  60.0431 300.0754 15.69741710100993","category":"Starlink"}]}